INTELSAT 23 (IS-23)     
1 38867U 12057A   26188.05637558 -.00000270  00000+0  00000+0 0  9999
2 38867   0.0130  52.9192 0000404  98.8720 100.5402  1.00275567 50154
FM-6                    
1 39360U 13058A   26187.90803023  .00000000  00000+0  00000+0 0  9995
2 39360   0.0450  67.8318 0002811 116.6951 310.9204  1.00271504 46274
INTELSAT 30 (IS-30)     
1 40271U 14062A   26188.55391803 -.00000135  00000+0  00000+0 0  9994
2 40271   0.0162  45.6651 0001324 344.1934   0.0276  1.00269626  6991
DIRECTV 14              
1 40333U 14078B   26188.55313802 -.00000110  00000+0  00000+0 0  9996
2 40333   0.0103  35.6348 0000214 302.4929  47.2811  1.00273531 42241
DIRECTV 15              
1 40663U 15026A   26188.35135608 -.00000087  00000+0  00000+0 0  9993
2 40663   0.0159  68.6128 0000235 274.1901 326.1380  1.00270888 40664
SKY MEXICO-1            
1 40664U 15026B   26188.55712471 -.00000219  00000+0  00000+0 0  9992
2 40664   0.0158 305.7926 0002478 181.9321 279.5699  1.00270671 40650
INTELSAT 34 (IS-34)     
1 40874U 15039A   26188.56180473 -.00000270  00000+0  00000+0 0  9998
2 40874   0.0116 335.0013 0000324  32.9039  64.3856  1.00270281 39839
INTELSAT 31 (IS-31)     
1 41581U 16035A   26187.27078995 -.00000136  00000+0  00000+0 0  9994
2 41581   0.0403 211.4121 0000829  55.4380  19.8435  1.00270733 36871
INTELSAT 36 (IS-36)     
1 41747U 16053A   26188.44379678 -.00000009  00000+0  00000+0 0  9999
2 41747   0.0096  10.8575 0002199 330.5708 172.2444  1.00270180 36162
INTELSAT 32E (IS-32E)   
1 41945U 17007B   26188.49290086 -.00000254  00000+0  00000+0 0  9991
2 41945   0.0168 339.8253 0000711   2.7489  77.1589  1.00269617 34424
INTELSAT 35E (IS-35E)   
1 42818U 17041A   26188.45126010  .00000000  00000+0  00000+0 0  9998
2 42818   0.0199  21.4408 0001640  86.1962 305.7495  1.00269726 33019
INTELSAT 37E (IS-37E)   
1 42950U 17059A   26188.42663670  .00000000  00000+0  00000+0 0  9999
2 42950   0.0221  36.2109 0002530  78.7211 306.0583  1.00269797 32263
AZERSPACE 2 (IS-38)     
1 43632U 18074A   26188.58173816  .00000000  00000+0  00000+0 0  9990
2 43632   0.0221  26.1370 0001247  91.4983  62.4482  1.00270746 28656
HORIZONS-3E             
1 43633U 18074B   26187.89338350 -.00000016  00000+0  00000+0 0  9998
2 43633   0.0376 227.4998 0000860  64.0191 123.9783  1.00269288 28530
AT&T T-16               
1 44333U 19034A   26188.55988277 -.00000100  00000+0  00000+0 0  9990
2 44333   0.0143  66.5596 0000472 243.0389  76.6215  1.00268832 25831
INTELSAT 39 (IS-39)     
1 44476U 19049B   26188.37105389  .00000048  00000+0  00000+0 0  9999
2 44476   0.0158   9.7580 0000504 307.4421 163.6784  1.00274979 25337
GALAXY 30 (G-30)        
1 46114U 20056C   26187.76375413  .00000052  00000+0  00000+0 0  9994
2 46114   0.0206  38.7570 0002186  67.2773 328.6685  1.00270907 21484
GALAXY 33 (G-33)        
1 54026U 22128A   26188.54646465  .00000094  00000+0  00000+0 0  9998
2 54026   0.0140 318.6595 0001777 148.3980 242.1907  1.00273122 13946
GALAXY 34 (G-34)        
1 54027U 22128B   26187.69175730  .00000000  00000+0  00000+0 0  9993
2 54027   0.0172  18.6774 0001829 102.5440 283.4893  1.00275248 14101
GALAXY 31 (G-31)        
1 54243U 22153A   26188.47756078  .00000028  00000+0  00000+0 0  9998
2 54243   0.0166 280.6740 0001301 186.2634 229.4308  1.00272441  7337
GALAXY 32 (G-32)        
1 54244U 22153B   26188.05572245 -.00000159  00000+0  00000+0 0  9991
2 54244   0.0098  22.5735 0001622  26.6946 164.8256  1.00270818 13346
GALAXY 35 (G-35)        
1 54741U 22170A   26188.55435137 -.00000147  00000+0  00000+0 0  9992
2 54741   0.0235  90.2450 0002061  19.5846 282.1578  1.00271540 13091
GALAXY 36 (G-36)        
1 54742U 22170B   26188.55513137 -.00000170  00000+0  00000+0 0  9996
2 54742   0.0242 132.5156 0002643 325.7400 298.1128  1.00270896 12974
GALAXY 37 (G-37)        
1 57493U 23112A   26188.54759133  .00000063  00000+0  00000+0 0  9996
2 57493   0.0185  35.3759 0001842  78.4792 241.7949  1.00272353 10749
